HELLAS-SAT 4 & SGS-1    
1 44034U 19007A   23267.08729764  .00000147  00000+0  00000+0 0  9995
2 44034   0.0621 129.2083 0005883  28.0048 275.8905  1.00270006 17355
GSAT-31                 
1 44035U 19007B   23267.05733740  .00000120  00000+0  00000+0 0  9993
2 44035   0.0190 208.7273 0003751  11.3423 211.0748  1.00270772 16979
NUSANTARA SATU          
1 44048U 19009A   23266.76785506 -.00000239  00000+0  00000+0 0  9995
2 44048   0.0215 147.2773 0004635   3.6971 273.8238  1.00270320 16774
CHINASAT 6C (ZX 6C)     
1 44067U 19012A   23267.00207809 -.00000340  00000+0  00000+0 0  9996
2 44067   0.0303 126.9319 0007148  14.7929 352.1022  1.00270598 16736
WGS 10 (USA 291)        
1 44071U 19014A   23266.71021581  .00000043  00000+0  00000+0 0  9990
2 44071   0.0211 154.3727 0000355  13.3704 150.5304  1.00270379 16602
TIANLIAN 2-01           
1 44076U 19017A   23266.70461222 -.00000110  00000+0  00000+0 0  9993
2 44076   0.2287 275.5561 0001468 211.7376 205.6930  1.00267951 16608
ARABSAT-6A              
1 44186U 19021A   23266.76726848  .00000149  00000+0  00000+0 0  9995
2 44186   0.0473 359.1646 0005358 218.0488  91.8852  1.00271694 16140
BEIDOU-3 IGSO-1         
1 44204U 19023A   23266.99395161 -.00000192  00000+0  00000+0 0  9992
2 44204  57.2495  48.0380 0024086 195.0350 237.2979  1.00276185 16369
BEIDOU-2 G8             
1 44231U 19027A   23266.93315088 -.00000251  00000+0  00000+0 0  9996
2 44231   2.0034  81.0373 0006468 126.4699 275.3114  1.00277333 16071
YAMAL 601               
1 44307U 19031A   23267.12921804  .00000114  00000+0  00000+0 0  9993
2 44307   0.0124 176.3257 0002569 358.7554 283.1621  1.00270162 15915
AT&T T-16               
1 44333U 19034A   23266.95603781 -.00000119  00000+0  00000+0 0  9992
2 44333   0.0171 222.7432 0000710 280.6372 102.4875  1.00265685 15620
EUTELSAT 7C             
1 44334U 19034B   23266.26095931  .00000046  00000+0  00000+0 0  9997
2 44334   0.0792 226.3491 0003277 295.7100 300.7378  1.00271374 16097
BEIDOU-3 IGSO-2         
1 44337U 19035A   23266.42970156 -.00000157  00000+0  00000+0 0  9994
2 44337  55.1521 167.6250 0032956 196.0507 272.6505  1.00268497 15664
COSMOS 2539             
1 44457U 19048A   23266.76352653  .00000077  00000+0  00000+0 0  9994
2 44457   0.0111 144.2927 0000560 297.5796 207.3477  1.00269520 15229
EDRS-C                  
1 44475U 19049A   23266.90651809  .00000150  00000+0  00000+0 0  9998
2 44475   0.0940 259.7482 0000824 272.2314 188.0398  1.00270068 15198
INTELSAT 39 (IS-39)     
1 44476U 19049B   23267.04910410  .00000028  00000+0  00000+0 0  9995
2 44476   0.0185 213.4220 0000780 193.4173  35.4304  1.00269872 15132
AMOS-17                 
1 44479U 19050A   23266.26296081  .00000107  00000+0  00000+0 0  9992
2 44479   0.0193 163.3251 0001473  19.1568 291.0337  1.00269480 15189
