[{"OBJECT_NAME":"HELLAS-SAT 4 & SGS-1","OBJECT_ID":"2019-007A","EPOCH":"2023-09-24T02:05:42.516096","MEAN_MOTION":1.00270006,"ECCENTRICITY":0.0005883,"INCLINATION":0.0621,"RA_OF_ASC_NODE":129.2083,"ARG_OF_PERICENTER":28.0048,"MEAN_ANOMALY":275.8905,"EPHEMERIS_TYPE":0,"CLASSIFICATION_TYPE":"U","NORAD_CAT_ID":44034,"ELEMENT_SET_NO":999,"REV_AT_EPOCH":1735,"BSTAR":0,"MEAN_MOTION_DOT":1.47e-6,"MEAN_MOTION_DDOT":0},{"OBJECT_NAME":"GSAT-31","OBJECT_ID":"2019-007B","EPOCH":"2023-09-24T01:22:33.951360","MEAN_MOTION":1.00270772,"ECCENTRICITY":0.0003751,"INCLINATION":0.019,"RA_OF_ASC_NODE":208.7273,"ARG_OF_PERICENTER":11.3423,"MEAN_ANOMALY":211.0748,"EPHEMERIS_TYPE":0,"CLASSIFICATION_TYPE":"U","NORAD_CAT_ID":44035,"ELEMENT_SET_NO":999,"REV_AT_EPOCH":1697,"BSTAR":0,"MEAN_MOTION_DOT":1.2e-6,"MEAN_MOTION_DDOT":0},{"OBJECT_NAME":"NUSANTARA SATU","OBJECT_ID":"2019-009A","EPOCH":"2023-09-23T18:25:42.677184","MEAN_MOTION":1.0027032,"ECCENTRICITY":0.0004635,"INCLINATION":0.0215,"RA_OF_ASC_NODE":147.2773,"ARG_OF_PERICENTER":3.6971,"MEAN_ANOMALY":273.8238,"EPHEMERIS_TYPE":0,"CLASSIFICATION_TYPE":"U","NORAD_CAT_ID":44048,"ELEMENT_SET_NO":999,"REV_AT_EPOCH":1677,"BSTAR":0,"MEAN_MOTION_DOT":-2.39e-6,"MEAN_MOTION_DDOT":0},{"OBJECT_NAME":"CHINASAT 6C (ZX 6C)","OBJECT_ID":"2019-012A","EPOCH":"2023-09-24T00:02:59.546976","MEAN_MOTION":1.00270598,"ECCENTRICITY":0.0007148,"INCLINATION":0.0303,"RA_OF_ASC_NODE":126.9319,"ARG_OF_PERICENTER":14.7929,"MEAN_ANOMALY":352.1022,"EPHEMERIS_TYPE":0,"CLASSIFICATION_TYPE":"U","NORAD_CAT_ID":44067,"ELEMENT_SET_NO":999,"REV_AT_EPOCH":1673,"BSTAR":0,"MEAN_MOTION_DOT":-3.4e-6,"MEAN_MOTION_DDOT":0},{"OBJECT_NAME":"WGS 10 (USA 291)","OBJECT_ID":"2019-014A","EPOCH":"2023-09-23T17:02:42.645984","MEAN_MOTION":1.00270379,"ECCENTRICITY":3.55e-5,"INCLINATION":0.0211,"RA_OF_ASC_NODE":154.3727,"ARG_OF_PERICENTER":13.3704,"MEAN_ANOMALY":150.5304,"EPHEMERIS_TYPE":0,"CLASSIFICATION_TYPE":"U","NORAD_CAT_ID":44071,"ELEMENT_SET_NO":999,"REV_AT_EPOCH":1660,"BSTAR":0,"MEAN_MOTION_DOT":4.3e-7,"MEAN_MOTION_DDOT":0},{"OBJECT_NAME":"TIANLIAN 2-01","OBJECT_ID":"2019-017A","EPOCH":"2023-09-23T16:54:38.495808","MEAN_MOTION":1.00267951,"ECCENTRICITY":0.0001468,"INCLINATION":0.2287,"RA_OF_ASC_NODE":275.5561,"ARG_OF_PERICENTER":211.7376,"MEAN_ANOMALY":205.693,"EPHEMERIS_TYPE":0,"CLASSIFICATION_TYPE":"U","NORAD_CAT_ID":44076,"ELEMENT_SET_NO":999,"REV_AT_EPOCH":1660,"BSTAR":0,"MEAN_MOTION_DOT":-1.1e-6,"MEAN_MOTION_DDOT":0},{"OBJECT_NAME":"ARABSAT-6A","OBJECT_ID":"2019-021A","EPOCH":"2023-09-23T18:24:51.996672","MEAN_MOTION":1.00271694,"ECCENTRICITY":0.0005358,"INCLINATION":0.0473,"RA_OF_ASC_NODE":359.1646,"ARG_OF_PERICENTER":218.0488,"MEAN_ANOMALY":91.8852,"EPHEMERIS_TYPE":0,"CLASSIFICATION_TYPE":"U","NORAD_CAT_ID":44186,"ELEMENT_SET_NO":999,"REV_AT_EPOCH":1614,"BSTAR":0,"MEAN_MOTION_DOT":1.49e-6,"MEAN_MOTION_DDOT":0},{"OBJECT_NAME":"BEIDOU-3 IGSO-1","OBJECT_ID":"2019-023A","EPOCH":"2023-09-23T23:51:17.419104","MEAN_MOTION":1.00276185,"ECCENTRICITY":0.0024086,"INCLINATION":57.2495,"RA_OF_ASC_NODE":48.038,"ARG_OF_PERICENTER":195.035,"MEAN_ANOMALY":237.2979,"EPHEMERIS_TYPE":0,"CLASSIFICATION_TYPE":"U","NORAD_CAT_ID":44204,"ELEMENT_SET_NO":999,"REV_AT_EPOCH":1636,"BSTAR":0,"MEAN_MOTION_DOT":-1.92e-6,"MEAN_MOTION_DDOT":0},{"OBJECT_NAME":"BEIDOU-2 G8","OBJECT_ID":"2019-027A","EPOCH":"2023-09-23T22:23:44.236032","MEAN_MOTION":1.00277333,"ECCENTRICITY":0.0006468,"INCLINATION":2.0034,"RA_OF_ASC_NODE":81.0373,"ARG_OF_PERICENTER":126.4699,"MEAN_ANOMALY":275.3114,"EPHEMERIS_TYPE":0,"CLASSIFICATION_TYPE":"U","NORAD_CAT_ID":44231,"ELEMENT_SET_NO":999,"REV_AT_EPOCH":1607,"BSTAR":0,"MEAN_MOTION_DOT":-2.51e-6,"MEAN_MOTION_DDOT":0},{"OBJECT_NAME":"YAMAL 601","OBJECT_ID":"2019-031A","EPOCH":"2023-09-24T03:06:04.438656","MEAN_MOTION":1.00270162,"ECCENTRICITY":0.0002569,"INCLINATION":0.0124,"RA_OF_ASC_NODE":176.3257,"ARG_OF_PERICENTER":358.7554,"MEAN_ANOMALY":283.1621,"EPHEMERIS_TYPE":0,"CLASSIFICATION_TYPE":"U","NORAD_CAT_ID":44307,"ELEMENT_SET_NO":999,"REV_AT_EPOCH":1591,"BSTAR":0,"MEAN_MOTION_DOT":1.14e-6,"MEAN_MOTION_DDOT":0},{"OBJECT_NAME":"AT&T T-16","OBJECT_ID":"2019-034A","EPOCH":"2023-09-23T22:56:41.666784","MEAN_MOTION":1.00265685,"ECCENTRICITY":7.1e-5,"INCLINATION":0.0171,"RA_OF_ASC_NODE":222.7432,"ARG_OF_PERICENTER":280.6372,"MEAN_ANOMALY":102.4875,"EPHEMERIS_TYPE":0,"CLASSIFICATION_TYPE":"U","NORAD_CAT_ID":44333,"ELEMENT_SET_NO":999,"REV_AT_EPOCH":1562,"BSTAR":0,"MEAN_MOTION_DOT":-1.19e-6,"MEAN_MOTION_DDOT":0},{"OBJECT_NAME":"EUTELSAT 7C","OBJECT_ID":"2019-034B","EPOCH":"2023-09-23T06:15:46.884384","MEAN_MOTION":1.00271374,"ECCENTRICITY":0.0003277,"INCLINATION":0.0792,"RA_OF_ASC_NODE":226.3491,"ARG_OF_PERICENTER":295.71,"MEAN_ANOMALY":300.7378,"EPHEMERIS_TYPE":0,"CLASSIFICATION_TYPE":"U","NORAD_CAT_ID":44334,"ELEMENT_SET_NO":999,"REV_AT_EPOCH":1609,"BSTAR":0,"MEAN_MOTION_DOT":4.6e-7,"MEAN_MOTION_DDOT":0},{"OBJECT_NAME":"BEIDOU-3 IGSO-2","OBJECT_ID":"2019-035A","EPOCH":"2023-09-23T10:18:46.214784","MEAN_MOTION":1.00268497,"ECCENTRICITY":0.0032956,"INCLINATION":55.1521,"RA_OF_ASC_NODE":167.625,"ARG_OF_PERICENTER":196.0507,"MEAN_ANOMALY":272.6505,"EPHEMERIS_TYPE":0,"CLASSIFICATION_TYPE":"U","NORAD_CAT_ID":44337,"ELEMENT_SET_NO":999,"REV_AT_EPOCH":1566,"BSTAR":0,"MEAN_MOTION_DOT":-1.57e-6,"MEAN_MOTION_DDOT":0},{"OBJECT_NAME":"COSMOS 2539","OBJECT_ID":"2019-048A","EPOCH":"2023-09-23T18:19:28.692192","MEAN_MOTION":1.0026952,"ECCENTRICITY":5.6e-5,"INCLINATION":0.0111,"RA_OF_ASC_NODE":144.2927,"ARG_OF_PERICENTER":297.5796,"MEAN_ANOMALY":207.3477,"EPHEMERIS_TYPE":0,"CLASSIFICATION_TYPE":"U","NORAD_CAT_ID":44457,"ELEMENT_SET_NO":999,"REV_AT_EPOCH":1522,"BSTAR":0,"MEAN_MOTION_DOT":7.7e-7,"MEAN_MOTION_DDOT":0},{"OBJECT_NAME":"EDRS-C","OBJECT_ID":"2019-049A","EPOCH":"2023-09-23T21:45:23.162976","MEAN_MOTION":1.00270068,"ECCENTRICITY":8.24e-5,"INCLINATION":0.094,"RA_OF_ASC_NODE":259.7482,"ARG_OF_PERICENTER":272.2314,"MEAN_ANOMALY":188.0398,"EPHEMERIS_TYPE":0,"CLASSIFICATION_TYPE":"U","NORAD_CAT_ID":44475,"ELEMENT_SET_NO":999,"REV_AT_EPOCH":1519,"BSTAR":0,"MEAN_MOTION_DOT":1.5e-6,"MEAN_MOTION_DDOT":0},{"OBJECT_NAME":"INTELSAT 39 (IS-39)","OBJECT_ID":"2019-049B","EPOCH":"2023-09-24T01:10:42.594240","MEAN_MOTION":1.00269872,"ECCENTRICITY":7.8e-5,"INCLINATION":0.0185,"RA_OF_ASC_NODE":213.422,"ARG_OF_PERICENTER":193.4173,"MEAN_ANOMALY":35.4304,"EPHEMERIS_TYPE":0,"CLASSIFICATION_TYPE":"U","NORAD_CAT_ID":44476,"ELEMENT_SET_NO":999,"REV_AT_EPOCH":1513,"BSTAR":0,"MEAN_MOTION_DOT":2.8e-7,"MEAN_MOTION_DDOT":0},{"OBJECT_NAME":"AMOS-17","OBJECT_ID":"2019-050A","EPOCH":"2023-09-23T06:18:39.813984","MEAN_MOTION":1.0026948,"ECCENTRICITY":0.0001473,"INCLINATION":0.0193,"RA_OF_ASC_NODE":163.3251,"ARG_OF_PERICENTER":19.1568,"MEAN_ANOMALY":291.0337,"EPHEMERIS_TYPE":0,"CLASSIFICATION_TYPE":"U","NORAD_CAT_ID":44479,"ELEMENT_SET_NO":999,"REV_AT_EPOCH":1518,"BSTAR":0,"MEAN_MOTION_DOT":1.07e-6,"MEAN_MOTION_DDOT":0}]